NORAD_CAT_ID,OBJECT_NAME,OBJECT_TYPE,EPOCH,MEAN_MOTION,ECCENTRICITY,INCLINATION,RA_OF_ASC_NODE,ARG_OF_PERICENTER,MEAN_ANOMALY,BSTAR,MEAN_MOTION_DOT,MEAN_MOTION_DDOT,TLE_LINE0,TLE_LINE1,TLE_LINE2,SEMIMAJOR_AXIS,PERIOD,APOGEE,PERIGEE,DECAYED
53831.0,STARLINK-4649,PAYLOAD,2023-06-13 21:00:47,15.0884111,0.0001358,53.2169,112.4439,95.4215,264.6933,-0.00011367,-2.097e-05,0.0,0 STARLINK-4649,1 53831U 22114P   23164.87554459 -.00002097  00000-0 -11367-3 0  9994,2 53831  53.2169 112.4439 0001358  95.4215 264.6933 15.08841110 41899,6917.877,95.437,540.681,538.803,0.0
53831.0,STARLINK-4649,PAYLOAD,2023-06-14 06:33:05,15.08834961,0.0001296,53.2168,110.6618,100.6073,259.5065,-8.2695e-06,-4.19e-06,0.0,0 STARLINK-4649,1 53831U 22114P   23165.27298533 -.00000419  00000-0 -82695-5 0  9997,2 53831  53.2168 110.6618 0001296 100.6073 259.5065 15.08834961 41951,6917.896,95.438,540.657,538.864,0.0
53831.0,STARLINK-4649,PAYLOAD,2023-06-14 20:51:34,15.08831853,0.0001201,53.217,107.9859,93.0468,267.0661,2.2697e-05,7.3e-07,0.0,0 STARLINK-4649,1 53831U 22114P   23165.86914817  .00000073  00000-0  22697-4 0  9991,2 53831  53.2170 107.9859 0001201  93.0468 267.0661 15.08831853 42043,6917.905,95.438,540.601,538.939,0.0
53831.0,STARLINK-4649,PAYLOAD,2023-06-15 04:48:29,15.08837281,0.0001212,53.2172,106.4991,91.6553,268.4578,5.809e-05,6.37e-06,0.0,0 STARLINK-4649,1 53831U 22114P   23166.20034484  .00000637  00000-0  58090-4 0  9995,2 53831  53.2172 106.4991 0001212  91.6553 268.4578 15.08837281 41555,6917.889,95.438,540.592,538.915,0.0
53831.0,STARLINK-4649,PAYLOAD,2023-06-16 06:14:40,15.08834734,0.0001253,53.2176,101.7411,86.1639,273.9497,0.00017641,2.52e-05,0.0,0 STARLINK-4649,1 53831U 22114P   23167.26018594  .00002520  00000-0  17641-3 0  9995,2 53831  53.2176 101.7411 0001253  86.1639 273.9497 15.08834734 41712,6917.896,95.438,540.628,538.895,0.0
53831.0,STARLINK-4649,PAYLOAD,2023-06-16 12:36:12,15.08841248,0.0001327,53.2178,100.552,80.7713,279.3429,5.3294e-05,5.6e-06,0.0,0 STARLINK-4649,1 53831U 22114P   23167.52514534  .00000560  00000-0  53294-4 0  9996,2 53831  53.2178 100.5520 0001327  80.7713 279.3429 15.08841248 42294,6917.877,95.437,540.66,538.824,0.0
53831.0,STARLINK-4649,PAYLOAD,2023-06-17 04:30:04,15.08832578,0.0001309,53.2173,97.5815,86.7884,273.3258,-3.0914e-05,-7.8e-06,0.0,0 STARLINK-4649,1 53831U 22114P   23168.18755654 -.00000780  00000-0 -30914-4 0  9999,2 53831  53.2173  97.5815 0001309  86.7884 273.3258 15.08832578 41857,6917.903,95.438,540.674,538.863,0.0
53831.0,STARLINK-4649,PAYLOAD,2023-06-17 18:48:33,15.08836114,0.0001246,53.217,94.9007,78.6093,281.5039,-2.264e-05,-6.48e-06,0.0,0 STARLINK-4649,1 53831U 22114P   23168.78371609 -.00000648  00000-0 -22640-4 0  9999,2 53831  53.2170  94.9007 0001246  78.6093 281.5039 15.08836114 42488,6917.892,95.438,540.619,538.895,0.0
53831.0,STARLINK-4649,PAYLOAD,2023-06-18 01:10:05,15.08838085,0.0001278,53.2162,93.7131,68.7617,291.3511,3.3274e-05,2.42e-06,0.0,0 STARLINK-4649,1 53831U 22114P   23169.04867303  .00000242  00000-0  33274-4 0  9993,2 53831  53.2162  93.7131 0001278  68.7617 291.3511 15.08838085 41988,6917.886,95.438,540.635,538.867,0.0
53831.0,STARLINK-4649,PAYLOAD,2023-06-18 12:17:47,15.08842717,0.0001115,53.2165,91.6299,88.4562,271.6558,-6.3343e-06,-3.89e-06,0.0,0 STARLINK-4649,1 53831U 22114P   23169.51235043 -.00000389  00000-0 -63343-5 0  9990,2 53831  53.2165  91.6299 0001115  88.4562 271.6558 15.08842717 42598,6917.872,95.437,540.508,538.966,0.0
53831.0,STARLINK-4649,PAYLOAD,2023-06-18 18:39:19,15.08837978,0.0001144,53.2166,90.4405,85.3744,274.7379,3.6062e-05,2.86e-06,0.0,0 STARLINK-4649,1 53831U 22114P   23169.77731264  .00000286  00000-0  36062-4 0  9995,2 53831  53.2166  90.4405 0001144  85.3744 274.7379 15.08837978 42638,6917.887,95.438,540.543,538.96,0.0
53831.0,STARLINK-4649,PAYLOAD,2023-06-19 12:08:33,15.08842059,0.0001187,53.217,87.1698,85.1823,274.9305,9.2952e-05,1.192e-05,0.0,0 STARLINK-4649,1 53831U 22114P   23170.50594841  .00001192  00000-0  92952-4 0  9993,2 53831  53.2170  87.1698 0001187  85.1823 274.9305 15.08842059 42203,6917.874,95.437,540.56,538.918,0.0
53831.0,STARLINK-4649,PAYLOAD,2023-06-20 04:02:24,15.08847643,0.000123,53.2172,84.1957,91.1434,268.9699,6.7592e-05,7.88e-06,0.0,0 STARLINK-4649,1 53831U 22114P   23171.16834422  .00000788  00000-0  67592-4 0  9990,2 53831  53.2172  84.1957 0001230  91.1434 268.9699 15.08847643 42847,6917.857,95.437,540.573,538.871,0.0
53831.0,STARLINK-4649,PAYLOAD,2023-06-20 18:20:53,15.08838225,0.0001569,53.2174,81.5168,103.607,256.5097,-2.3947e-05,-6.69e-06,0.0,0 STARLINK-4649,1 53831U 22114P   23171.76451277 -.00000669  00000-0 -23947-4 0  9995,2 53831  53.2174  81.5168 0001569 103.6070 256.5097 15.08838225 42395,6917.886,95.438,540.836,538.665,0.0
53831.0,STARLINK-4649,PAYLOAD,2023-06-21 00:42:26,15.08840666,0.000122,53.2173,80.3306,85.692,274.4211,1.94e-05,2.1e-07,0.0,0 STARLINK-4649,1 53831U 22114P   23172.02947004  .00000021  00000-0  19400-4 0  9992,2 53831  53.2173  80.3306 0001220  85.6920 274.4211 15.08840666 42975,6917.878,95.438,540.587,538.899,0.0
53831.0,STARLINK-4649,PAYLOAD,2023-06-22 00:33:13,15.0883857,0.00012,53.2176,75.87,88.8046,271.3084,1.6386e-06,-2.62e-06,0.0,0 STARLINK-4649,1 53831U 22114P   23173.02307325 -.00000262  00000-0  16386-5 0  9998,2 53831  53.2176  75.8700 0001200  88.8046 271.3084 15.08838570 42589,6917.885,95.438,540.58,538.92,0.0
53831.0,STARLINK-4649,PAYLOAD,2023-06-23 09:56:19,15.08835074,0.0001086,53.217,69.6273,89.5407,270.571,5.164e-05,5.34e-06,0.0,0 STARLINK-4649,1 53831U 22114P   23174.41411743  .00000534  00000-0  51640-4 0  9994,2 53831  53.2170  69.6273 0001086  89.5407 270.5710 15.08835074 42796,6917.895,95.438,540.512,539.009,0.0
53831.0,STARLINK-4649,PAYLOAD,2023-06-24 01:50:10,15.08843449,0.0001058,53.2172,66.6537,96.7053,263.406,8.2394e-05,1.024e-05,0.0,0 STARLINK-4649,1 53831U 22114P   23175.07651326  .00001024  00000-0  82394-4 0  9995,2 53831  53.2172  66.6537 0001058  96.7053 263.4060 15.08843449 42899,6917.87,95.437,540.467,539.003,0.0
53831.0,STARLINK-4649,PAYLOAD,2023-06-24 11:22:30,15.08837254,0.0001101,53.2175,64.8696,93.8599,266.2519,3.7359e-05,3.07e-06,0.0,0 STARLINK-4649,1 53831U 22114P   23175.47395913  .00000307  00000-0  37359-4 0  9990,2 53831  53.2175  64.8696 0001101  93.8599 266.2519 15.08837254 42954,6917.889,95.438,540.515,538.992,0.0
53831.0,STARLINK-4649,PAYLOAD,2023-06-25 01:40:57,15.08847553,0.0001092,53.2173,62.1931,88.712,271.3997,8.8231e-05,1.117e-05,0.0,0 STARLINK-4649,1 53831U 22114P   23176.07011258  .00001117  00000-0  88231-4 0  9999,2 53831  53.2173  62.1931 0001092  88.7120 271.3997 15.08847553 43048,6917.857,95.437,540.478,538.967,0.0
53831.0,STARLINK-4649,PAYLOAD,2023-06-25 09:37:53,15.08842502,0.0001131,53.2177,60.7057,79.0552,281.0567,-1.4202e-05,-5.14e-06,0.0,0 STARLINK-4649,1 53831U 22114P   23176.40131836 -.00000514  00000-0 -14202-4 0  9990,2 53831  53.2177  60.7057 0001131  79.0552 281.0567 15.08842502 43096,6917.873,95.437,540.52,538.955,0.0
53831.0,STARLINK-4649,PAYLOAD,2023-06-26 15:50:13,15.08834557,0.0001122,53.2175,55.0566,85.5872,274.5248,3.0429e-05,1.96e-06,0.0,0 STARLINK-4649,1 53831U 22114P   23177.65988314  .00000196  00000-0  30429-4 0  9992,2 53831  53.2175  55.0566 0001122  85.5872 274.5248 15.08834557 43288,6917.897,95.438,540.538,538.986,0.0
53831.0,STARLINK-4649,PAYLOAD,2023-06-27 01:22:32,15.0884726,0.0001138,53.2179,53.2709,96.5996,263.5125,3.0085e-05,1.91e-06,0.0,0 STARLINK-4649,1 53831U 22114P   23178.05731495  .00000191  00000-0  30085-4 0  9996,2 53831  53.2179  53.2709 0001138  96.5996 263.5125 15.08847260 43341,6917.858,95.437,540.51,538.936,0.0
53831.0,STARLINK-4649,PAYLOAD,2023-06-27 20:27:09,15.08840706,0.0001151,53.2178,49.7022,93.6453,266.4671,6.3961e-05,7.3e-06,0.0,0 STARLINK-4649,1 53831U 22114P   23178.85219746  .00000730  00000-0  63961-4 0  9992,2 53831  53.2178  49.7022 0001151  93.6453 266.4671 15.08840706 43468,6917.878,95.438,540.539,538.947,0.0
53831.0,STARLINK-4649,PAYLOAD,2023-06-28 18:42:34,15.0883551,0.000122,53.2176,45.5383,99.3638,260.7492,5.669e-07,-2.79e-06,0.0,0 STARLINK-4649,1 53831U 22114P   23179.77956298 -.00000279  00000-0  56690-6 0  9996,2 53831  53.2176  45.5383 0001220  99.3638 260.7492 15.08835510 43606,6917.894,95.438,540.603,538.915,0.0
53831.0,STARLINK-4649,PAYLOAD,2023-06-30 21:34:54,15.08832707,0.0001279,53.2186,36.027,107.0482,253.065,5.4583e-05,5.81e-06,0.0,0 STARLINK-4649,1 53831U 22114P   23181.89924725  .00000581  00000-0  54583-4 0  9994,2 53831  53.2186  36.0270 0001279 107.0482 253.0650 15.08832707 43926,6917.903,95.438,540.652,538.883,0.0
53831.0,STARLINK-4649,PAYLOAD,2023-07-01 23:01:04,15.08841418,0.0001113,53.2176,31.2672,93.8793,266.2326,8.5614e-05,1.075e-05,0.0,0 STARLINK-4649,1 53831U 22114P   23182.95908300  .00001075  00000-0  85614-4 0  9991,2 53831  53.2176  31.2672 0001113  93.8793 266.2326 15.08841418 44085,6917.876,95.437,540.511,538.971,0.0
53831.0,STARLINK-4649,PAYLOAD,2023-07-03 17:56:29,15.08837745,0.0001086,53.2172,23.238,92.3323,267.7794,2.5345e-05,1.16e-06,0.0,0 STARLINK-4649,1 53831U 22114P   23184.74756788  .00000116  00000-0  25345-4 0  9991,2 53831  53.2172  23.2380 0001086  92.3323 267.7794 15.08837745 44353,6917.887,95.438,540.504,539.001,0.0
53831.0,STARLINK-4649,PAYLOAD,2023-07-05 00:08:48,15.08846046,0.000116,53.2173,17.5883,80.2546,279.8577,5.7714e-05,6.31e-06,0.0,0 STARLINK-4649,1 53831U 22114P   23186.00612180  .00000631  00000-0  57714-4 0  9996,2 53831  53.2173  17.5883 0001160  80.2546 279.8577 15.08846046 44542,6917.862,95.437,540.529,538.924,0.0
53831.0,STARLINK-4649,PAYLOAD,2023-07-05 19:13:26,15.08840069,0.0001213,53.2173,14.0191,86.452,273.6611,2.5451e-05,1.17e-06,0.0,0 STARLINK-4649,1 53831U 22114P   23186.80100672  .00000117  00000-0  25451-4 0  9994,2 53831  53.2173  14.0191 0001213  86.4520 273.6611 15.08840069 44668,6917.88,95.438,540.584,538.906,0.0
